NAVSTAR 48 (USA 151)    
1 26407U 00040A   26204.44449333  .00000088  00000+0  00000+0 0  9995
2 26407  54.8477 213.7220 0120292 302.8465 239.9178  2.00558038190670
NAVSTAR 51 (USA 166)    
1 27663U 03005A   26204.75596706  .00000089  00000+0  00000+0 0  9996
2 27663  54.8781 213.5159 0148469  53.2077 130.6793  2.00558687172045
NAVSTAR 54 (USA 177)    
1 28190U 04009A   26204.77777778 -.00000025  00000+0  00000+0 0  9990
2 28190  54.7996 274.2069 0117431 174.7318 177.2770  2.00553783163677
NAVSTAR 56 (USA 180)    
1 28474U 04045A   26204.77777778 -.00000110  00000+0  00000+0 0  9990
2 28474  55.1124 323.4224 0170364 317.2564  99.9291  2.00557825159169
NAVSTAR 57 (USA 183)    
1 28874U 05038A   26204.24434278 -.00000024  00000+0  00000+0 0  9998
2 28874  54.8493 271.7203 0128346 296.5220  60.3256  2.00563316152552
INMARSAT 4-F2           
1 28899U 05044A   26204.78332465 -.00000259  00000+0  00000+0 0  9996
2 28899   5.1426  43.6898 0002995  63.6024 259.7092  1.00271702 75882
NAVSTAR 58 (USA 190)    
1 29486U 06042A   26204.64382051  .00000003  00000+0  00000+0 0  9995
2 29486  54.7132 149.8915 0107419  55.4105 128.9756  2.00567841145126
NAVSTAR 59 (USA 192)    
1 29601U 06052A   26203.81820194  .00000087  00000+0  00000+0 0  9990
2 29601  54.9317 212.5938 0084743  91.0163 269.9892  2.00560215144123
NAVSTAR 60 (USA 196)    
1 32260U 07047A   26204.12413520 -.00000071  00000+0  00000+0 0  9990
2 32260  54.1219  78.5842 0168029  88.1819 273.7984  2.00553724137539
COSMOS 2433 [GLONASS-M] 
1 32275U 07052A   26203.10996669 -.00000090  00000+0  00000+0 0  9990
2 32275  65.5549 314.7579 0003748 204.3382 155.6620  2.13104093145801
COSMOS 2432 [GLONASS-M] 
1 32276U 07052B   26202.71222580 -.00000089  00000+0  00000+0 0  9999
2 32276  65.5711 314.9000 0007377 320.6362  37.9836  2.13103057145817
NAVSTAR 61 (USA 199)    
1 32384U 07062A   26204.77777778 -.00000020  00000+0  00000+0 0  9997
2 32384  55.0028 272.6798 0036068 168.0387  72.1090  2.00562593136246
COSMOS 2434 [GLONASS-M] 
1 32393U 07065A   26204.41759829  .00000090  00000+0  00000+0 0  9994
2 32393  64.3201 190.6938 0001260 328.7623 204.0735  2.13101318144543
COSMOS 2436 [GLONASS-M] 
1 32395U 07065C   26204.25276242  .00000091  00000+0  00000+0 0  9992
2 32395  64.3287 190.7719 0017299 353.7357 184.8008  2.13100091144497
NAVSTAR 62 (USA 201)    
1 32711U 08012A   26204.53058655  .00000002  00000+0  00000+0 0  9996
2 32711  54.5004 148.4728 0211725 248.2244 109.4868  2.00573655134481
NAVSTAR 64 (USA 206)    
1 35752U 09043A   26204.51743443 -.00000078  00000+0  00000+0 0  9997
2 35752  56.2331  26.0264 0053637  84.7546 272.6757  2.00552515124088
COSMOS 2456 [GLONASS-M] 
1 36111U 09070A   26204.24251524 -.00000046  00000+0  00000+0 0  9996
2 36111  65.0327  69.7425 0003079 345.9694 210.8988  2.13103733129190
COSMOS 2457 [GLONASS-M] 
1 36112U 09070B   26203.13698076 -.00000052  00000+0  00000+0 0  9998
2 36112  65.0178  69.6233 0004394 122.7671  73.0536  2.13101025129176
COSMOS 2460 [GLONASS-M] 
1 36402U 10007C   26202.40772837 -.00000088  00000+0  00000+0 0  9998
2 36402  65.3983 313.3083 0001852 154.3387 203.9833  2.13101549127452
NAVSTAR 65 (USA 213)    
1 36585U 10022A   26204.60664839  .00000088  00000+0  00000+0 0  9992
2 36585  54.2680 207.0950 0126933  66.1694 115.9629  2.00564274118321
BEIDOU-2 IGSO-1         
1 36828U 10036A   26203.83497221 -.00000090  00000+0  00000+0 0  9994
2 36828  54.3079 162.6381 0059059 225.2794 320.0279  1.00261993 58459
BEIDOU-2 G4             
1 37210U 10057A   26204.78661801 -.00000111  00000+0  00000+0 0  9999
2 37210   3.7357  68.7160 0005259 182.6467 133.2903  1.00273350 57658
BEIDOU-2 IGSO-2         
1 37256U 10068A   26202.87819282 -.00000198  00000+0  00000+0 0  9992
2 37256  47.4828 271.3972 0057045 214.5351 238.1175  1.00271863 57143
BEIDOU-2 IGSO-3         
1 37384U 11013A   26202.49436278 -.00000172  00000+0  00000+0 0  9995
2 37384  62.4558  39.8259 0035881 183.5212 359.9880  1.00259347 56004
GSAT-8                  
1 37605U 11022A   26204.83708506  .00000087  00000+0  00000+0 0  9991
2 37605   2.2229  81.3773 0002547 149.3584  67.2547  1.00272639 53583
BEIDOU-2 IGSO-4         
1 37763U 11038A   26204.34647517 -.00000037  00000+0  00000+0 0  9999
2 37763  54.6049 165.3512 0160077 231.4952 123.4200  1.00278501 55002
GSAT0101 (GALILEO-PFM)  
1 37846U 11060A   26203.04348625 -.00000107  00000+0  00000+0 0  9998
2 37846  56.9816 340.8168 0002031  64.0635 295.9520  1.70475789 91713
GSAT0102 (GALILEO-FM2)  
1 37847U 11060B   26202.38421657 -.00000107  00000+0  00000+0 0  9992
2 37847  56.9829 340.8353 0001995   5.2866 355.7737  1.70476023 91712
COSMOS 2476 [GLONASS-M] 
1 37867U 11064A   26204.29366720 -.00000045  00000+0  00000+0 0  9990
2 37867  65.2908  71.6526 0021995 235.2718 269.1539  2.13103627114538
COSMOS 2477 [GLONASS-M] 
1 37868U 11064B   26203.63180419 -.00000050  00000+0  00000+0 0  9993
2 37868  65.2968  71.7547 0019088 236.1337 300.7696  2.13102887114517
COSMOS 2475 [GLONASS-M] 
1 37869U 11064C   26204.16432013 -.00000046  00000+0  00000+0 0  9998
2 37869  65.3041  71.7587 0024508 250.2945 290.1042  2.13101721114535
